[{"OBJECT_NAME":"STARLINK-31688","OBJECT_ID":"2024-062N","EPOCH":"2026-03-09T19:38:19.347072","MEAN_MOTION":15.30190387,"ECCENTRICITY":0.00013796,"INCLINATION":53.1597,"RA_OF_ASC_NODE":257.7291,"ARG_OF_PERICENTER":122.6372,"MEAN_ANOMALY":237.4762,"EPHEMERIS_TYPE":0,"CLASSIFICATION_TYPE":"U","NORAD_CAT_ID":59386,"ELEMENT_SET_NO":999,"REV_AT_EPOCH":10961,"BSTAR":-8.272869e-6,"MEAN_MOTION_DOT":-6.04e-6,"MEAN_MOTION_DDOT":0},{"OBJECT_NAME":"GEOSCAN 4 (RS92S4)","OBJECT_ID":"2025-155S","EPOCH":"2026-03-09T21:50:07.724832","MEAN_MOTION":15.30369837,"ECCENTRICITY":0.00070968,"INCLINATION":97.4465,"RA_OF_ASC_NODE":37.7626,"ARG_OF_PERICENTER":154.7045,"MEAN_ANOMALY":205.4544,"EPHEMERIS_TYPE":0,"CLASSIFICATION_TYPE":"U","NORAD_CAT_ID":64892,"ELEMENT_SET_NO":999,"REV_AT_EPOCH":6562,"BSTAR":0.00068609503,"MEAN_MOTION_DOT":0.00020121,"MEAN_MOTION_DDOT":0}]
